{"type": "FeatureCollection", "features": [ {"type": "Feature", "properties": {"norad_id": 38552, "name": "METEOSAT-10 (MSG-3)", "group": "weather", "lat": -1.137723778682475, "lon": 45.921360059848936, "alt_km": 35786.323104168376, "timestamp": "2025-12-10T21:43:21.729215+00:00", "meta": {"OBJECT_NAME": "METEOSAT-10 (MSG-3)", "OBJECT_ID": "2012-035B", "EPOCH": "2025-12-09T20:25:24.031776", "MEAN_MOTION": 1.00274082, "ECCENTRICITY": 8.515e-05, "INCLINATION": 4.2224, "RA_OF_ASC_NODE": 61.7294, "ARG_OF_PERICENTER": 241.822, "MEAN_ANOMALY": 81.7823, "EPHEMERIS_TYPE": 0, "CLASSIFICATION_TYPE": "U", "NORAD_CAT_ID": 38552, "ELEMENT_SET_NO": 999, "REV_AT_EPOCH": 4895, "BSTAR": 0, "MEAN_MOTION_DOT": -4e-08, "MEAN_MOTION_DDOT": 0}, "tle": {"line1": "1 38552U 12035B   25343.85097259 -.00000004  00000+0  00000+0 0  9999", "line2": "2 38552   4.2224  61.7294 0000851 241.8220  81.7823  1.00274082 48950"}}, "geometry": {"type": "Point", "coordinates": [45.921360059848936, -1.137723778682475]}}, {"type": "Feature", "properties": {"norad_id": 38771, "name": "METOP-B", "group": "weather", "lat": 63.73407167056645, "lon": 16.862253242576607, "alt_km": 814.0895703928627, "timestamp": "2025-12-10T21:43:21.729227+00:00", "meta": {"OBJECT_NAME": "METOP-B", "OBJECT_ID": "2012-049A", "EPOCH": "2025-12-10T14:39:34.966368", "MEAN_MOTION": 14.21407155, "ECCENTRICITY": 0.0002822, "INCLINATION": 98.6802, "RA_OF_ASC_NODE": 34.6057, "ARG_OF_PERICENTER": 148.665, "MEAN_ANOMALY": 211.4696, "EPHEMERIS_TYPE": 0, "CLASSIFICATION_TYPE": "U", "NORAD_CAT_ID": 38771, "ELEMENT_SET_NO": 999, "REV_AT_EPOCH": 68647, "BSTAR": 0.00011924289, "MEAN_MOTION_DOT": 2.17e-06, "MEAN_MOTION_DDOT": 0}, "tle": {"line1": "1 38771U 12049A   25344.61082137  .00000217  00000+0  11924-3 0  9997", "line2": "2 38771  98.6802  34.6057 0002822 148.6650 211.4696 14.21407155686470"}}, "geometry": {"type": "Point", "coordinates": [16.862253242576607, 63.73407167056645]}}, {"type": "Feature", "properties": {"norad_id": 39216, "name": "INSAT-3D", "group": "weather", "lat": 1.4364156856615102, "lon": 175.2385023326925, "alt_km": 35784.278542950284, "timestamp": "2025-12-10T21:43:21.729238+00:00", "meta": {"OBJECT_NAME": "INSAT-3D", "OBJECT_ID": "2013-038B", "EPOCH": "2025-12-10T13:42:38.672352", "MEAN_MOTION": 1.00270831, "ECCENTRICITY": 0.00015822, "INCLINATION": 1.4397, "RA_OF_ASC_NODE": 85.0117, "ARG_OF_PERICENTER": 163.3577, "MEAN_ANOMALY": 166.3807, "EPHEMERIS_TYPE": 0, "CLASSIFICATION_TYPE": "U", "NORAD_CAT_ID": 39216, "ELEMENT_SET_NO": 999, "REV_AT_EPOCH": 4518, "BSTAR": 0, "MEAN_MOTION_DOT": -3.35e-06, "MEAN_MOTION_DDOT": 0}, "tle": {"line1": "1 39216U 13038B   25344.57128093 -.00000335  00000+0  00000+0 0  9999", "line2": "2 39216   1.4397  85.0117 0001582 163.3577 166.3807  1.00270831 45188"}}, "geometry": {"type": "Point", "coordinates": [175.2385023326925, 1.4364156856615102]}}, {"type": "Feature", "properties": {"norad_id": 39260, "name": "FENGYUN 3C", "group": "weather", "lat": -10.01522745872043, "lon": -35.81688423178575, "alt_km": 852.7872674903174, "timestamp": "2025-12-10T21:43:21.729249+00:00", "meta": {"OBJECT_NAME": "FENGYUN 3C", "OBJECT_ID": "2013-052A", "EPOCH": "2025-12-10T14:59:08.073600", "MEAN_MOTION": 14.15695287, "ECCENTRICITY": 0.00141659, "INCLINATION": 98.4761, "RA_OF_ASC_NODE": 322.4071, "ARG_OF_PERICENTER": 202.3053, "MEAN_ANOMALY": 157.7508, "EPHEMERIS_TYPE": 0, "CLASSIFICATION_TYPE": "U", "NORAD_CAT_ID": 39260, "ELEMENT_SET_NO": 999, "REV_AT_EPOCH": 63188, "BSTAR": 0.00012510363, "MEAN_MOTION_DOT": 2.04e-06, "MEAN_MOTION_DDOT": 0}, "tle": {"line1": "1 39260U 13052A   25344.62439900  .00000204  00000+0  12510-3 0  9999", "line2": "2 39260  98.4761 322.4071 0014165 202.3053 157.7508 14.15695287631885"}}, "geometry": {"type": "Point", "coordinates": [-35.81688423178575, -10.01522745872043]}}, {"type": "Feature", "properties": {"norad_id": 40069, "name": "METEOR-M 2", "group": "weather", "lat": -64.89502411916845, "lon": -18.849725559965194, "alt_km": 827.103314361223, "timestamp": "2025-12-10T21:43:21.729260+00:00", "meta": {"OBJECT_NAME": "METEOR-M 2", "OBJECT_ID": "2014-037A", "EPOCH": "2025-12-10T13:35:12.957216", "MEAN_MOTION": 14.2138549, "ECCENTRICITY": 0.00048872, "INCLINATION": 98.4903, "RA_OF_ASC_NODE": 322.2336, "ARG_OF_PERICENTER": 217.2437, "MEAN_ANOMALY": 142.8403, "EPHEMERIS_TYPE": 0, "CLASSIFICATION_TYPE": "U", "NORAD_CAT_ID": 40069, "ELEMENT_SET_NO": 999, "REV_AT_EPOCH": 59252, "BSTAR": 0.00022319373, "MEAN_MOTION_DOT": 4.45e-06, "MEAN_MOTION_DDOT": 0}, "tle": {"line1": "1 40069U 14037A   25344.56612219  .00000445  00000+0  22319-3 0  9996", "line2": "2 40069  98.4903 322.2336 0004887 217.2437 142.8403 14.21385490592520"}}, "geometry": {"type": "Point", "coordinates": [-18.849725559965194, -64.89502411916845]}}, {"type": "Feature", "properties": {"norad_id": 40267, "name": "HIMAWARI-8", "group": "weather", "lat": -0.019920224942664048, "lon": -173.6452488186081, "alt_km": 35788.61857176281, "timestamp": "2025-12-10T21:43:21.729272+00:00", "meta": {"OBJECT_NAME": "HIMAWARI-8", "OBJECT_ID": "2014-060A", "EPOCH": "2025-12-10T12:49:38.623584", "MEAN_MOTION": 1.00270399, "ECCENTRICITY": 0.00012389, "INCLINATION": 0.0342, "RA_OF_ASC_NODE": 203.7403, "ARG_OF_PERICENTER": 96.594, "MEAN_ANOMALY": 112.2439, "EPHEMERIS_TYPE": 0, "CLASSIFICATION_TYPE": "U", "NORAD_CAT_ID": 40267, "ELEMENT_SET_NO": 999, "REV_AT_EPOCH": 4086, "BSTAR": 0, "MEAN_MOTION_DOT": -2.71e-06, "MEAN_MOTION_DDOT": 0}, "tle": {"line1": "1 40267U 14060A   25344.53447481 -.00000271  00000+0  00000+0 0  9993", "line2": "2 40267   0.0342 203.7403 0001238  96.5940 112.2439  1.00270399 40867"}}, "geometry": {"type": "Point", "coordinates": [-173.6452488186081, -0.019920224942664048]}}, {"type": "Feature", "properties": {"norad_id": 40367, "name": "FENGYUN 2G", "group": "weather", "lat": 4.8645258243803475, "lon": 145.1875451496932, "alt_km": 35795.107357158995, "timestamp": "2025-12-10T21:43:21.729284+00:00", "meta": {"OBJECT_NAME": "FENGYUN 2G", "OBJECT_ID": "2014-090A", "EPOCH": "2025-12-10T14:59:09.767040", "MEAN_MOTION": 1.00264684, "ECCENTRICITY": 0.00031141, "INCLINATION": 5.1632, "RA_OF_ASC_NODE": 75.1189, "ARG_OF_PERICENTER": 195.603, "MEAN_ANOMALY": 133.2481, "EPHEMERIS_TYPE": 0, "CLASSIFICATION_TYPE": "U", "NORAD_CAT_ID": 40367, "ELEMENT_SET_NO": 999, "REV_AT_EPOCH": 4010, "BSTAR": 0, "MEAN_MOTION_DOT": -2.97e-06, "MEAN_MOTION_DDOT": 0}, "tle": {"line1": "1 40367U 14090A   25344.62441860 -.00000297  00000+0  00000+0 0  9990", "line2": "2 40367   5.1632  75.1189 0003114 195.6030 133.2481  1.00264684 40101"}}, "geometry": {"type": "Point", "coordinates": [145.1875451496932, 4.8645258243803475]}}, {"type": "Feature", "properties": {"norad_id": 40732, "name": "METEOSAT-11 (MSG-4)", "group": "weather", "lat": -0.7793900161303197, "lon": 55.04451140478826, "alt_km": 35790.65826954065, "timestamp": "2025-12-10T21:43:21.729297+00:00", "meta": {"OBJECT_NAME": "METEOSAT-11 (MSG-4)", "OBJECT_ID": "2015-034A", "EPOCH": "2025-12-09T22:35:38.584320", "MEAN_MOTION": 1.00266624, "ECCENTRICITY": 9.647e-05, "INCLINATION": 2.7284, "RA_OF_ASC_NODE": 72.0094, "ARG_OF_PERICENTER": 122.8009, "MEAN_ANOMALY": 232.3625, "EPHEMERIS_TYPE": 0, "CLASSIFICATION_TYPE": "U", "NORAD_CAT_ID": 40732, "ELEMENT_SET_NO": 999, "REV_AT_EPOCH": 531, "BSTAR": 0, "MEAN_MOTION_DOT": 6.4e-07, "MEAN_MOTION_DDOT": 0}, "tle": {"line1": "1 40732U 15034A   25343.94141880  .00000064  00000+0  00000+0 0  9999", "line2": "2 40732   2.7284  72.0094 0000964 122.8009 232.3625  1.00266624  5313"}}, "geometry": {"type": "Point", "coordinates": [55.04451140478826, -0.7793900161303197]}}, {"type": "Feature", "properties": {"norad_id": 41105, "name": "ELEKTRO-L 2", "group": "weather", "lat": -4.114296713328491, "lon": 31.416996058915117, "alt_km": 35794.62065171835, "timestamp": "2025-12-10T21:43:21.729309+00:00", "meta": {"OBJECT_NAME": "ELEKTRO-L 2", "OBJECT_ID": "2015-074A", "EPOCH": "2025-12-09T01:31:10.511904", "MEAN_MOTION": 1.00271905, "ECCENTRICITY": 0.00038363, "INCLINATION": 6.2161, "RA_OF_ASC_NODE": 72.8685, "ARG_OF_PERICENTER": 198.9202, "MEAN_ANOMALY": 174.5582, "EPHEMERIS_TYPE": 0, "CLASSIFICATION_TYPE": "U", "NORAD_CAT_ID": 41105, "ELEMENT_SET_NO": 999, "REV_AT_EPOCH": 3660, "BSTAR": 0, "MEAN_MOTION_DOT": -1.16e-06, "MEAN_MOTION_DDOT": 0}, "tle": {"line1": "1 41105U 15074A   25343.06331611 -.00000116  00000+0  00000+0 0  9993", "line2": "2 41105   6.2161  72.8685 0003836 198.9202 174.5582  1.00271905 36608"}}, "geometry": {"type": "Point", "coordinates": [31.416996058915117, -4.114296713328491]}}, {"type": "Feature", "properties": {"norad_id": 41752, "name": "INSAT-3DR", "group": "weather", "lat": 0.05946656108715087, "lon": 119.63087029035921, "alt_km": 35839.802833889895, "timestamp": "2025-12-10T21:43:21.729321+00:00", "meta": {"OBJECT_NAME": "INSAT-3DR", "OBJECT_ID": "2016-054A", "EPOCH": "2025-12-10T08:41:38.596992", "MEAN_MOTION": 1.00270503, "ECCENTRICITY": 0.00144719, "INCLINATION": 0.0862, "RA_OF_ASC_NODE": 86.5692, "ARG_OF_PERICENTER": 183.809, "MEAN_ANOMALY": 13.3753, "EPHEMERIS_TYPE": 0, "CLASSIFICATION_TYPE": "U", "NORAD_CAT_ID": 41752, "ELEMENT_SET_NO": 999, "REV_AT_EPOCH": 3392, "BSTAR": 0, "MEAN_MOTION_DOT": -7.3e-07, "MEAN_MOTION_DDOT": 0}, "tle": {"line1": "1 41752U 16054A   25344.36225228 -.00000073  00000+0  00000+0 0  9992", "line2": "2 41752   0.0862  86.5692 0014471 183.8090  13.3753  1.00270503 33926"}}, "geometry": {"type": "Point", "coordinates": [119.63087029035921, 0.05946656108715087]}}]}